0 FENGYUN 1C DEB
1 37028U 99025EDL 13283.01784944  .00001778  00000-0  11441-2 0   918
2 37028 099.2260 349.9169 0043836 235.0235 124.7863 14.03991422317585
0 FENGYUN 1C DEB
1 37028U 99025EDL 13286.01093262  .00001754  00000-0  11285-2 0   928
2 37028 099.2258 352.9500 0044672 227.3276 132.4233 14.04002000318004
0 FENGYUN 1C DEB
1 37028U 99025EDL 13293.42233504  .00001839  00000-0  11807-2 0   931
2 37028 099.2192 000.4666 0045027 206.1805 153.7621 14.04031187319047
